GSAT0101 (PRN E11)      
1 37846U 11060A   20364.28495650 -.00000055  00000-0  00000-0 0  9991
2 37846  56.7453  35.9367 0003154 308.6858  51.3581  1.70475372 57094
GSAT0102 (PRN E12)      
1 37847U 11060B   20364.49309080 -.00000054  00000-0  00000-0 0  9995
2 37847  56.7462  35.9304 0005121 297.1396 236.8079  1.70475509 57107
GSAT0103 (PRN E19)      
1 38857U 12055A   20362.56680852  .00000073  00000-0  00000-0 0  9997
2 38857  55.0124 156.4663 0001445 232.4535 127.5068  1.70473742 51100
GSAT0104 (PRN E20)      
1 38858U 12055B   20364.26095853  .00000069  00000-0  00000-0 0  9993
2 38858  55.0135 156.4191 0000485 172.8941 187.0708  1.70473646 51138
GSAT0201 (PRN E18)      
1 40128U 14050A   20363.98105838 -.00000091  00000-0  00000-0 0  9992
2 40128  50.5320 353.6158 1653251 105.7314 273.1232  1.85519567 41289
GSAT0202 (PRN E14)      
1 40129U 14050B   20361.01006338 -.00000103  00000-0  00000-0 0  9994
2 40129  50.5665 352.7774 1650968 106.4499 272.3347  1.85520273 43398
GSAT0203 (PRN E26)      
1 40544U 15017A   20364.06609974 -.00000056  00000-0  00000-0 0  9999
2 40544  56.5391  36.0495 0005476 254.5745 105.4367  1.70475158 35179
GSAT0204 (PRN E22)      
1 40545U 15017B   20363.26047166 -.00000059  00000-0  00000-0 0  9993
2 40545  56.5451  36.0884 0003580 231.8933 128.1452  1.70475357 35820
GSAT0205 (PRN E24)      
1 40889U 15045A   20364.08906662 -.00000006  00000-0  00000-0 0  9993
2 40889  56.0024 276.7407 0005505   4.7627 355.2914  1.70474627 32981
GSAT0206 (PRN E30)      
1 40890U 15045B   20363.72199936 -.00000008  00000-0  00000-0 0  9995
2 40890  56.0020 276.7473 0003902 353.4452   6.5961  1.70474758 33008
GSAT0209 (PRN E09)      
1 41174U 15079A   20363.89556719  .00000070  00000-0  00000-0 0  9990
2 41174  55.0274 156.1290 0002568 337.3804  22.5738  1.70473462 30919
GSAT0208 (PRN E08)      
1 41175U 15079B   20362.94212567  .00000072  00000-0  00000-0 0  9998
2 41175  55.0252 156.1544 0001849 340.9989  18.9649  1.70473459 31314
GSAT0211 (PRN E02)      
1 41549U 16030A   20363.65007677 -.00000009  00000-0  00000-0 0  9995
2 41549  56.1451 276.6258 0004770 329.2838  30.7344  1.70474417 28631
GSAT0210 (PRN E01)      
1 41550U 16030B   20363.94295257 -.00000007  00000-0  00000-0 0  9990
2 41550  56.1440 276.6194 0003652 307.1316  52.8832  1.70474457 28635
GSAT0207 (PRN E07)      
1 41859U 16069A   20363.01515992  .00000072  00000-0  00000-0 0  9994
2 41859  54.6861 156.4676 0002041 314.7955  45.1589  1.70473484 25518
GSAT0212 (PRN E03)      
1 41860U 16069B   20362.86860917  .00000072  00000-0  00000-0 0  9998
2 41860  54.6836 156.4702 0002094   9.5452 350.4304  1.70473501 25608
GSAT0213 (PRN E04)      
1 41861U 16069C   20363.82088666  .00000070  00000-0  00000-0 0  9997
2 41861  54.6860 156.4480 0001346 257.8766 102.0747  1.70473526 25625
GSAT0214 (PRN E05)      
1 41862U 16069D   20363.96795997  .00000070  00000-0  00000-0 0  9995
2 41862  54.6844 156.4392 0000494 269.2156  90.7444  1.70473547 25612
GSAT0215 (PRN E21)      
1 43055U 17079A   20362.11193430 -.00000019  00000-0  00000-0 0  9997
2 43055  56.1213 276.5087 0002993 306.3421  53.6671  1.70473646 18920
GSAT0216 (PRN E25)      
1 43056U 17079B   20362.99115406 -.00000013  00000-0  00000-0 0  9995
2 43056  56.1209 276.4842 0004642 295.6635  64.3307  1.70473758 18956
GSAT0217 (PRN E27)      
1 43057U 17079C   20360.86487774 -.00000028  00000-0  00000-0 0  9996
2 43057  56.1211 276.5430 0004606 307.1296  52.8593  1.70473727 18906
GSAT0218 (PRN E31)      
1 43058U 17079D   20362.84465679 -.00000014  00000-0  00000-0 0  9992
2 43058  56.1192 276.4861 0004979 289.7898  70.1977  1.70473742 18960
GSAT0221 (PRN E15)      
1 43564U 18060A   20363.91662965 -.00000056  00000-0  00000-0 0  9997
2 43564  56.9251  35.7315 0006076 268.7516  91.2506  1.70476181 15138
GSAT0222 (PRN E33)      
1 43565U 18060B   20363.54989031 -.00000057  00000-0  00000-0 0  9994
2 43565  56.9269  35.7411 0005679 274.2201  85.7865  1.70476225 15175
GSAT0219 (PRN E36)      
1 43566U 18060C   20362.01055285 -.00000064  00000-0  00000-0 0  9999
2 43566  56.9266  35.7849 0005402 268.9509  91.0558  1.70476095 15122
GSAT0220 (PRN E13)      
1 43567U 18060D   20363.40360497 -.00000058  00000-0  00000-0 0  9991
2 43567  56.9270  35.7477 0005548 271.0488  88.9589  1.70476248 15137
